{
  "type": "FeatureCollection",
  "features": [
    {
      "type": "Feature",
      "properties": {
        "norad_id": 66676,
        "name": "TRANSPORTER-15L",
        "group": "last-30-days",
        "lat": -60.61538504472924,
        "lon": -123.03479639683631,
        "alt_km": 524.312564345234,
        "timestamp": "2025-12-24T20:42:19.744675+00:00",
        "meta_object_name": "TRANSPORTER-15L",
        "meta_object_id": "2025-276L",
        "meta_epoch": "2025-12-24T02:12:58.234752",
        "meta_mean_motion": 15.15865945,
        "meta_eccentricity": 0.00033167,
        "meta_inclination": 97.4383,
        "meta_ra_of_asc_node": 69.6259,
        "meta_arg_of_pericenter": 196.3095,
        "meta_mean_anomaly": 163.8032,
        "meta_ephemeris_type": 0,
        "meta_classification_type": "U",
        "meta_norad_cat_id": 66676,
        "meta_element_set_no": 999,
        "meta_rev_at_epoch": 384,
        "meta_bstar": -0.0033340538,
        "meta_mean_motion_dot": -0.00063262,
        "meta_mean_motion_ddot": 0,
        "tle_line1": "1 66676U 25276L   25358.09234068 -.00063262  00000+0 -33341-2 0  9994",
        "tle_line2": "2 66676  97.4383  69.6259 0003316 196.3095 163.8032 15.15865945  3847"
      },
      "geometry": {
        "type": "Point",
        "coordinates": [
          -123.03479639683631,
          -60.61538504472924
        ]
      }
    },
    {
      "type": "Feature",
      "properties": {
        "norad_id": 66677,
        "name": "TRANSPORTER-15M",
        "group": "last-30-days",
        "lat": -14.603842701656738,
        "lon": 72.37088156713168,
        "alt_km": 495.2624801831789,
        "timestamp": "2025-12-24T20:42:19.744685+00:00",
        "meta_object_name": "TRANSPORTER-15M",
        "meta_object_id": "2025-276M",
        "meta_epoch": "2025-12-23T22:42:45.903168",
        "meta_mean_motion": 15.22843354,
        "meta_eccentricity": 0.0025304,
        "meta_inclination": 97.4375,
        "meta_ra_of_asc_node": 69.5111,
        "meta_arg_of_pericenter": 251.3667,
        "meta_mean_anomaly": 108.4821,
        "meta_ephemeris_type": 0,
        "meta_classification_type": "U",
        "meta_norad_cat_id": 66677,
        "meta_element_set_no": 999,
        "meta_rev_at_epoch": 382,
        "meta_bstar": 0.064784,
        "meta_mean_motion_dot": 0.01686367,
        "meta_mean_motion_ddot": 0,
        "tle_line1": "1 66677U 25276M   25357.94636462  .01686367  00000+0  64784-1 0  9992",
        "tle_line2": "2 66677  97.4375  69.5111 0025304 251.3667 108.4821 15.22843354  3820"
      },
      "geometry": {
        "type": "Point",
        "coordinates": [
          72.37088156713168,
          -14.603842701656738
        ]
      }
    },
    {
      "type": "Feature",
      "properties": {
        "norad_id": 66678,
        "name": "TRANSPORTER-15N",
        "group": "last-30-days",
        "lat": -74.245307277521,
        "lon": -137.20993892903928,
        "alt_km": 515.9066622758501,
        "timestamp": "2025-12-24T20:42:19.744697+00:00",
        "meta_object_name": "TRANSPORTER-15N",
        "meta_object_id": "2025-276N",
        "meta_epoch": "2025-12-23T13:30:59.821632",
        "meta_mean_motion": 15.1725627,
        "meta_eccentricity": 0.00085587,
        "meta_inclination": 97.4431,
        "meta_ra_of_asc_node": 69.1192,
        "meta_arg_of_pericenter": 326.8045,
        "meta_mean_anomaly": 33.265,
        "meta_ephemeris_type": 0,
        "meta_classification_type": "U",
        "meta_norad_cat_id": 66678,
        "meta_element_set_no": 999,
        "meta_rev_at_epoch": 376,
        "meta_bstar": 0.019320773,
        "meta_mean_motion_dot": 0.00406502,
        "meta_mean_motion_ddot": 0,
        "tle_line1": "1 66678U 25276N   25357.56319238  .00406502  00000+0  19321-1 0  9997",
        "tle_line2": "2 66678  97.4431  69.1192 0008558 326.8045  33.2650 15.17256270  3766"
      },
      "geometry": {
        "type": "Point",
        "coordinates": [
          -137.20993892903928,
          -74.245307277521
        ]
      }
    },
    {
      "type": "Feature",
      "properties": {
        "norad_id": 66679,
        "name": "TRANSPORTER-15P",
        "group": "last-30-days",
        "lat": -62.76037919341686,
        "lon": -124.32369241858481,
        "alt_km": 519.8261195822352,
        "timestamp": "2025-12-24T20:42:19.744707+00:00",
        "meta_object_name": "TRANSPORTER-15P",
        "meta_object_id": "2025-276P",
        "meta_epoch": "2025-12-23T11:57:58.682304",
        "meta_mean_motion": 15.16695549,
        "meta_eccentricity": 0.00046551,
        "meta_inclination": 97.4364,
        "meta_ra_of_asc_node": 69.0361,
        "meta_arg_of_pericenter": 254.9707,
        "meta_mean_anomaly": 105.1011,
        "meta_ephemeris_type": 0,
        "meta_classification_type": "U",
        "meta_norad_cat_id": 66679,
        "meta_element_set_no": 999,
        "meta_rev_at_epoch": 375,
        "meta_bstar": 0.00023774263,
        "meta_mean_motion_dot": 4.592e-05,
        "meta_mean_motion_ddot": 0,
        "tle_line1": "1 66679U 25276P   25357.49859586  .00004592  00000+0  23774-3 0  9997",
        "tle_line2": "2 66679  97.4364  69.0361 0004655 254.9707 105.1011 15.16695549  3753"
      },
      "geometry": {
        "type": "Point",
        "coordinates": [
          -124.32369241858481,
          -62.76037919341686
        ]
      }
    },
    {
      "type": "Feature",
      "properties": {
        "norad_id": 66680,
        "name": "TRANSPORTER-15Q",
        "group": "last-30-days",
        "lat": -71.15699683059609,
        "lon": -132.12462127098746,
        "alt_km": 519.861850197226,
        "timestamp": "2025-12-24T20:42:19.744717+00:00",
        "meta_object_name": "TRANSPORTER-15Q",
        "meta_object_id": "2025-276Q",
        "meta_epoch": "2025-12-24T05:20:44.815488",
        "meta_mean_motion": 15.16837023,
        "meta_eccentricity": 0.00043803,
        "meta_inclination": 97.4403,
        "meta_ra_of_asc_node": 69.7631,
        "meta_arg_of_pericenter": 235.631,
        "meta_mean_anomaly": 124.451,
        "meta_ephemeris_type": 0,
        "meta_classification_type": "U",
        "meta_norad_cat_id": 66680,
        "meta_element_set_no": 999,
        "meta_rev_at_epoch": 386,
        "meta_bstar": 6.6454606e-05,
        "meta_mean_motion_dot": 1.241e-05,
        "meta_mean_motion_ddot": 0,
        "tle_line1": "1 66680U 25276Q   25358.22274092  .00001241  00000+0  66455-4 0  9996",
        "tle_line2": "2 66680  97.4403  69.7631 0004380 235.6310 124.4510 15.16837023  3862"
      },
      "geometry": {
        "type": "Point",
        "coordinates": [
          -132.12462127098746,
          -71.15699683059609
        ]
      }
    },
    {
      "type": "Feature",
      "properties": {
        "norad_id": 66681,
        "name": "TRANSPORTER-15R",
        "group": "last-30-days",
        "lat": -73.49641290088731,
        "lon": 96.52657905308452,
        "alt_km": 517.4085698179597,
        "timestamp": "2025-12-24T20:42:19.744726+00:00",
        "meta_object_name": "TRANSPORTER-15R",
        "meta_object_id": "2025-276R",
        "meta_epoch": "2025-12-24T05:12:39.057408",
        "meta_mean_motion": 15.17489957,
        "meta_eccentricity": 0.00049798,
        "meta_inclination": 97.4332,
        "meta_ra_of_asc_node": 69.7474,
        "meta_arg_of_pericenter": 269.4812,
        "meta_mean_anomaly": 90.5851,
        "meta_ephemeris_type": 0,
        "meta_classification_type": "U",
        "meta_norad_cat_id": 66681,
        "meta_element_set_no": 999,
        "meta_rev_at_epoch": 386,
        "meta_bstar": 0.00097099796,
        "meta_mean_motion_dot": 0.00019432,
        "meta_mean_motion_ddot": 0,
        "tle_line1": "1 66681U 25276R   25358.21711872  .00019432  00000+0  97100-3 0  9999",
        "tle_line2": "2 66681  97.4332  69.7474 0004979 269.4812  90.5851 15.17489957  3866"
      },
      "geometry": {
        "type": "Point",
        "coordinates": [
          96.52657905308452,
          -73.49641290088731
        ]
      }
    },
    {
      "type": "Feature",
      "properties": {
        "norad_id": 66682,
        "name": "TRANSPORTER-15S",
        "group": "last-30-days",
        "lat": -82.48355155311394,
        "lon": 152.7231160950207,
        "alt_km": 516.149824086101,
        "timestamp": "2025-12-24T20:42:19.744736+00:00",
        "meta_object_name": "TRANSPORTER-15S",
        "meta_object_id": "2025-276S",
        "meta_epoch": "2025-12-23T16:36:30.446784",
        "meta_mean_motion": 15.17268093,
        "meta_eccentricity": 0.00070245,
        "meta_inclination": 97.4445,
        "meta_ra_of_asc_node": 69.262,
        "meta_arg_of_pericenter": 262.2032,
        "meta_mean_anomaly": 97.8405,
        "meta_ephemeris_type": 0,
        "meta_classification_type": "U",
        "meta_norad_cat_id": 66682,
        "meta_element_set_no": 999,
        "meta_rev_at_epoch": 378,
        "meta_bstar": 0.0041402612,
        "meta_mean_motion_dot": 0.00083292,
        "meta_mean_motion_ddot": 0,
        "tle_line1": "1 66682U 25276S   25357.69201906  .00083292  00000+0  41403-2 0  9992",
        "tle_line2": "2 66682  97.4445  69.2620 0007024 262.2032  97.8405 15.17268093  3781"
      },
      "geometry": {
        "type": "Point",
        "coordinates": [
          152.7231160950207,
          -82.48355155311394
        ]
      }
    }
  ]
}